[{"OBJECT_NAME":"STARLINK-32604","OBJECT_ID":"2024-217P","EPOCH":"2026-03-09T15:55:50.488320","MEAN_MOTION":15.30198031,"ECCENTRICITY":0.00012994,"INCLINATION":53.161,"RA_OF_ASC_NODE":194.2832,"ARG_OF_PERICENTER":91.7768,"MEAN_ANOMALY":268.3382,"EPHEMERIS_TYPE":0,"CLASSIFICATION_TYPE":"U","NORAD_CAT_ID":62070,"ELEMENT_SET_NO":999,"REV_AT_EPOCH":7341,"BSTAR":0.0015061192,"MEAN_MOTION_DOT":0.00044513,"MEAN_MOTION_DDOT":0},{"OBJECT_NAME":"CZ-4 DEB","OBJECT_ID":"2003-049H","EPOCH":"2026-03-08T08:27:28.944576","MEAN_MOTION":15.27137095,"ECCENTRICITY":0.00307627,"INCLINATION":98.6284,"RA_OF_ASC_NODE":272.5918,"ARG_OF_PERICENTER":169.0311,"MEAN_ANOMALY":191.1601,"EPHEMERIS_TYPE":0,"CLASSIFICATION_TYPE":"U","NORAD_CAT_ID":35381,"ELEMENT_SET_NO":999,"REV_AT_EPOCH":18390,"BSTAR":0.0032047887,"MEAN_MOTION_DOT":0.00087287,"MEAN_MOTION_DDOT":0}]
